0 IRIDIUM 33 DEB
1 33960U 97051BV  13282.48465686  .00002665  00000-0  85610-3 0  3408
2 33960 086.2741 103.8436 0010657 176.7842 241.1074 14.39058620244120
0 IRIDIUM 33 DEB
1 33960U 97051BV  13283.81486134  .00003541  00000-0  11394-2 0  3419
2 33960 086.2740 103.2641 0010502 172.8733 291.9232 14.39062131244329
0 IRIDIUM 33 DEB
1 33960U 97051BV  13286.04787616  .00003209  00000-0  10319-2 0  3435
2 33960 086.2738 102.2912 0010615 166.6384 339.2737 14.39073608244646
0 IRIDIUM 33 DEB
1 33960U 97051BV  13287.48999782  .00003693  00000-0  11882-2 0  3447
2 33960 086.2736 101.6631 0010727 162.5234 249.8232 14.39080781244846
0 IRIDIUM 33 DEB
1 33960U 97051BV  13288.68670080  .00004153  00000-0  13366-2 0  3459
2 33960 086.2737 101.1419 0010849 158.9484 329.2439 14.39093239245022
0 IRIDIUM 33 DEB
1 33960U 97051BV  13289.93646130  .00004534  00000-0  14594-2 0  3465
2 33960 086.2736 100.5974 0010917 154.8968 323.8905 14.39100754245207
0 IRIDIUM 33 DEB
1 33960U 97051BV  13291.45403172  .00004317  00000-0  13889-2 0  3478
2 33960 086.2739 099.9365 0010990 150.7323 265.2803 14.39112639245410
0 IRIDIUM 33 DEB
1 33960U 97051BV  13292.93299784  .00003923  00000-0  12614-2 0  3482
2 33960 086.2746 099.2925 0011081 146.7941 006.6289 14.39123069245634
0 IRIDIUM 33 DEB
1 33960U 97051BV  13294.51443416  .00005055  00000-0  16265-2 0  3496
2 33960 086.2750 098.6039 0011102 142.4794 278.9604 14.39133792245854
0 IRIDIUM 33 DEB
1 33960U 97051BV  13295.76639127  .00005241  00000-0  16864-2 0  3504
2 33960 086.2753 098.0587 0011076 139.1972 284.4012 14.39143365246033
